HAWK-A                  
1 43765U 18099H   26068.67628545  .00008617  00000+0  36104-3 0  9995
2 43765  97.4051 122.2425 0034260 275.5523  84.1807 15.23231043397949
STARLINK-31186          
1 59030U 24038H   26068.28444458 -.00001465  00000+0 -43729-4 0  9991
2 59030  43.0056  29.5244 0001163 274.0063  86.0656 15.27572946114696
